[{"OBJECT_NAME":"XINGYUN-2 02","OBJECT_ID":"2020-028B","EPOCH":"2026-03-10T00:08:18.521088","MEAN_MOTION":15.11086378,"ECCENTRICITY":0.0009258,"INCLINATION":97.5114,"RA_OF_ASC_NODE":76.7595,"ARG_OF_PERICENTER":249.9829,"MEAN_ANOMALY":110.0404,"EPHEMERIS_TYPE":0,"CLASSIFICATION_TYPE":"U","NORAD_CAT_ID":45603,"ELEMENT_SET_NO":999,"REV_AT_EPOCH":31985,"BSTAR":0.00013296102,"MEAN_MOTION_DOT":2.163e-5,"MEAN_MOTION_DDOT":0},{"OBJECT_NAME":"STARLINK-5155","OBJECT_ID":"2022-141P","EPOCH":"2026-03-09T04:54:33.060384","MEAN_MOTION":15.08831621,"ECCENTRICITY":0.00012561,"INCLINATION":53.2191,"RA_OF_ASC_NODE":6.3494,"ARG_OF_PERICENTER":90.99,"MEAN_ANOMALY":269.1236,"EPHEMERIS_TYPE":0,"CLASSIFICATION_TYPE":"U","NORAD_CAT_ID":54170,"ELEMENT_SET_NO":999,"REV_AT_EPOCH":18578,"BSTAR":0.00016174676,"MEAN_MOTION_DOT":2.287e-5,"MEAN_MOTION_DDOT":0}]
